CCSDS_OMM_VERS = 2.0
CREATION_DATE  = 
ORIGINATOR     = 

OBJECT_NAME    = HULIANWANG DIGUI-142
OBJECT_ID      = 2026-007F
CENTER_NAME    = EARTH
REF_FRAME      = TEME
TIME_SYSTEM    = UTC
MEAN_ELEMENT_THEORY = SGP/SGP4

EPOCH          = 2026-01-23T21:10:17.218272
MEAN_MOTION    = 13.90535672
ECCENTRICITY   = .0002523
INCLINATION    = 50.0048
RA_OF_ASC_NODE = 253.5982
ARG_OF_PERICENTER = 314.3162
MEAN_ANOMALY   = 45.7530

EPHEMERIS_TYPE = 0
CLASSIFICATION_TYPE = U
NORAD_CAT_ID   = 67440
ELEMENT_SET_NO = 999
REV_AT_EPOCH   = 143
BSTAR          = .25024E-4
MEAN_MOTION_DOT = -.115E-5
MEAN_MOTION_DDOT = 0

CCSDS_OMM_VERS = 2.0
CREATION_DATE  = 
ORIGINATOR     = 

OBJECT_NAME    = HULIANWANG DIGUI-143
OBJECT_ID      = 2026-007G
CENTER_NAME    = EARTH
REF_FRAME      = TEME
TIME_SYSTEM    = UTC
MEAN_ELEMENT_THEORY = SGP/SGP4

EPOCH          = 2026-01-23T19:25:36.591456
MEAN_MOTION    = 13.91012328
ECCENTRICITY   = .000743
INCLINATION    = 50.0266
RA_OF_ASC_NODE = 253.8698
ARG_OF_PERICENTER = 282.2294
MEAN_ANOMALY   = 77.7773

EPHEMERIS_TYPE = 0
CLASSIFICATION_TYPE = U
NORAD_CAT_ID   = 67441
ELEMENT_SET_NO = 999
REV_AT_EPOCH   = 142
BSTAR          = .23176E-3
MEAN_MOTION_DOT = .146E-5
MEAN_MOTION_DDOT = 0

CCSDS_OMM_VERS = 2.0
CREATION_DATE  = 
ORIGINATOR     = 

OBJECT_NAME    = HULIANWANG DIGUI-144
OBJECT_ID      = 2026-007H
CENTER_NAME    = EARTH
REF_FRAME      = TEME
TIME_SYSTEM    = UTC
MEAN_ELEMENT_THEORY = SGP/SGP4

EPOCH          = 2026-01-23T21:07:43.575744
MEAN_MOTION    = 13.91086201
ECCENTRICITY   = .0002737
INCLINATION    = 50.0013
RA_OF_ASC_NODE = 253.5868
ARG_OF_PERICENTER = 328.4135
MEAN_ANOMALY   = 31.6599

EPHEMERIS_TYPE = 0
CLASSIFICATION_TYPE = U
NORAD_CAT_ID   = 67442
ELEMENT_SET_NO = 999
REV_AT_EPOCH   = 143
BSTAR          = .21238E-3
MEAN_MOTION_DOT = .122E-5
MEAN_MOTION_DDOT = 0

CCSDS_OMM_VERS = 2.0
CREATION_DATE  = 
ORIGINATOR     = 

OBJECT_NAME    = HULIANWANG DIGUI-145
OBJECT_ID      = 2026-007J
CENTER_NAME    = EARTH
REF_FRAME      = TEME
TIME_SYSTEM    = UTC
MEAN_ELEMENT_THEORY = SGP/SGP4

EPOCH          = 2026-01-23T21:05:36.166848
MEAN_MOTION    = 13.91383131
ECCENTRICITY   = .0001491
INCLINATION    = 50.0029
RA_OF_ASC_NODE = 253.5784
ARG_OF_PERICENTER = 329.9765
MEAN_ANOMALY   = 30.1049

EPHEMERIS_TYPE = 0
CLASSIFICATION_TYPE = U
NORAD_CAT_ID   = 67443
ELEMENT_SET_NO = 999
REV_AT_EPOCH   = 143
BSTAR          = .24126E-3
MEAN_MOTION_DOT = .16E-5
MEAN_MOTION_DDOT = 0

CCSDS_OMM_VERS = 2.0
CREATION_DATE  = 
ORIGINATOR     = 

OBJECT_NAME    = CZ-8A R/B
OBJECT_ID      = 2026-007K
CENTER_NAME    = EARTH
REF_FRAME      = TEME
TIME_SYSTEM    = UTC
MEAN_ELEMENT_THEORY = SGP/SGP4

EPOCH          = 2026-01-24T00:14:20.647680
MEAN_MOTION    = 14.13547434
ECCENTRICITY   = .00921828
INCLINATION    = 50.0089
RA_OF_ASC_NODE = 251.5920
ARG_OF_PERICENTER = 118.6402
MEAN_ANOMALY   = 242.3815

EPHEMERIS_TYPE = 0
CLASSIFICATION_TYPE = U
NORAD_CAT_ID   = 67444
ELEMENT_SET_NO = 999
REV_AT_EPOCH   = 146
BSTAR          = .17330306E-3
MEAN_MOTION_DOT = .186E-5
MEAN_MOTION_DDOT = 0

CCSDS_OMM_VERS = 2.0
CREATION_DATE  = 
ORIGINATOR     = 

OBJECT_NAME    = STARLINK-36542
OBJECT_ID      = 2026-008A
CENTER_NAME    = EARTH
REF_FRAME      = TEME
TIME_SYSTEM    = UTC
MEAN_ELEMENT_THEORY = SGP/SGP4

EPOCH          = 2026-01-24T12:00:00.998784
MEAN_MOTION    = 15.93214952
ECCENTRICITY   = .0001178
INCLINATION    = 43.0012
RA_OF_ASC_NODE = 102.2614
ARG_OF_PERICENTER = 280.2431
MEAN_ANOMALY   = 267.3295

EPHEMERIS_TYPE = 0
CLASSIFICATION_TYPE = U
NORAD_CAT_ID   = 67445
ELEMENT_SET_NO = 999
REV_AT_EPOCH   = 269
BSTAR          = -.28909E-2
MEAN_MOTION_DOT = -.1060339E-1
MEAN_MOTION_DDOT = .34034E-3

CCSDS_OMM_VERS = 2.0
CREATION_DATE  = 
ORIGINATOR     = 

OBJECT_NAME    = STARLINK-36539
OBJECT_ID      = 2026-008B
CENTER_NAME    = EARTH
REF_FRAME      = TEME
TIME_SYSTEM    = UTC
MEAN_ELEMENT_THEORY = SGP/SGP4

EPOCH          = 2026-01-24T12:00:00.998784
MEAN_MOTION    = 15.93273826
ECCENTRICITY   = .0001425
INCLINATION    = 43.0012
RA_OF_ASC_NODE = 102.2551
ARG_OF_PERICENTER = 281.1221
MEAN_ANOMALY   = 268.8852

EPHEMERIS_TYPE = 0
CLASSIFICATION_TYPE = U
NORAD_CAT_ID   = 67446
ELEMENT_SET_NO = 999
REV_AT_EPOCH   = 269
BSTAR          = -.28647E-2
MEAN_MOTION_DOT = -.1054082E-1
MEAN_MOTION_DDOT = .33688E-3

CCSDS_OMM_VERS = 2.0
CREATION_DATE  = 
ORIGINATOR     = 

OBJECT_NAME    = STARLINK-36440
OBJECT_ID      = 2026-008C
CENTER_NAME    = EARTH
REF_FRAME      = TEME
TIME_SYSTEM    = UTC
MEAN_ELEMENT_THEORY = SGP/SGP4

EPOCH          = 2026-01-24T12:00:00.998784
MEAN_MOTION    = 15.93349779
ECCENTRICITY   = .0001113
INCLINATION    = 43.0013
RA_OF_ASC_NODE = 102.2489
ARG_OF_PERICENTER = 276.1429
MEAN_ANOMALY   = 276.5034

EPHEMERIS_TYPE = 0
CLASSIFICATION_TYPE = U
NORAD_CAT_ID   = 67447
ELEMENT_SET_NO = 999
REV_AT_EPOCH   = 269
BSTAR          = -.29048E-2
MEAN_MOTION_DOT = -.1072943E-1
MEAN_MOTION_DDOT = .34823E-3

CCSDS_OMM_VERS = 2.0
CREATION_DATE  = 
ORIGINATOR     = 

OBJECT_NAME    = STARLINK-36423
OBJECT_ID      = 2026-008D
CENTER_NAME    = EARTH
REF_FRAME      = TEME
TIME_SYSTEM    = UTC
MEAN_ELEMENT_THEORY = SGP/SGP4

EPOCH          = 2026-01-24T12:00:00.998784
MEAN_MOTION    = 15.93411225
ECCENTRICITY   = .0001237
INCLINATION    = 43.0013
RA_OF_ASC_NODE = 102.2426
ARG_OF_PERICENTER = 283.8586
MEAN_ANOMALY   = 271.1527

EPHEMERIS_TYPE = 0
CLASSIFICATION_TYPE = U
NORAD_CAT_ID   = 67448
ELEMENT_SET_NO = 999
REV_AT_EPOCH   = 269
BSTAR          = -.29024E-2
MEAN_MOTION_DOT = -.1075531E-1
MEAN_MOTION_DDOT = .34997E-3

CCSDS_OMM_VERS = 2.0
CREATION_DATE  = 
ORIGINATOR     = 

OBJECT_NAME    = STARLINK-36519
OBJECT_ID      = 2026-008E
CENTER_NAME    = EARTH
REF_FRAME      = TEME
TIME_SYSTEM    = UTC
MEAN_ELEMENT_THEORY = SGP/SGP4

EPOCH          = 2026-01-24T12:00:00.998784
MEAN_MOTION    = 15.93480606
ECCENTRICITY   = .0001242
INCLINATION    = 43.0013
RA_OF_ASC_NODE = 102.2361
ARG_OF_PERICENTER = 281.3492
MEAN_ANOMALY   = 276.2352

EPHEMERIS_TYPE = 0
CLASSIFICATION_TYPE = U
NORAD_CAT_ID   = 67449
ELEMENT_SET_NO = 999
REV_AT_EPOCH   = 269
BSTAR          = -.29136E-2
MEAN_MOTION_DOT = -.1083589E-1
MEAN_MOTION_DDOT = .35502E-3

CCSDS_OMM_VERS = 2.0
CREATION_DATE  = 
ORIGINATOR     = 

OBJECT_NAME    = STARLINK-36525
OBJECT_ID      = 2026-008F
CENTER_NAME    = EARTH
REF_FRAME      = TEME
TIME_SYSTEM    = UTC
MEAN_ELEMENT_THEORY = SGP/SGP4

EPOCH          = 2026-01-24T12:00:00.998784
MEAN_MOTION    = 15.93562155
ECCENTRICITY   = .0001207
INCLINATION    = 43.0010
RA_OF_ASC_NODE = 102.2284
ARG_OF_PERICENTER = 280.3892
MEAN_ANOMALY   = 280.2029

EPHEMERIS_TYPE = 0
CLASSIFICATION_TYPE = U
NORAD_CAT_ID   = 67450
ELEMENT_SET_NO = 999
REV_AT_EPOCH   = 269
BSTAR          = -.2934E-2
MEAN_MOTION_DOT = -.1095784E-1
MEAN_MOTION_DDOT = .36264E-3

CCSDS_OMM_VERS = 2.0
CREATION_DATE  = 
ORIGINATOR     = 

OBJECT_NAME    = STARLINK-36511
OBJECT_ID      = 2026-008G
CENTER_NAME    = EARTH
REF_FRAME      = TEME
TIME_SYSTEM    = UTC
MEAN_ELEMENT_THEORY = SGP/SGP4

EPOCH          = 2026-01-24T12:00:00.998784
MEAN_MOTION    = 15.93649560
ECCENTRICITY   = .000124
INCLINATION    = 43.0012
RA_OF_ASC_NODE = 102.2207
ARG_OF_PERICENTER = 281.4880
MEAN_ANOMALY   = 282.2192

EPHEMERIS_TYPE = 0
CLASSIFICATION_TYPE = U
NORAD_CAT_ID   = 67451
ELEMENT_SET_NO = 999
REV_AT_EPOCH   = 269
BSTAR          = -.2973E-2
MEAN_MOTION_DOT = -.1115318E-1
MEAN_MOTION_DDOT = .37486E-3

