HULIANWANG DIGUI-142    
1 67440U 26007F   26023.88214373 -.00000115  00000+0  25024-4 0  9999
2 67440  50.0048 253.5982 0002523 314.3162  45.7530 13.90535672  1439
HULIANWANG DIGUI-143    
1 67441U 26007G   26023.80945129  .00000146  00000+0  23176-3 0  9990
2 67441  50.0266 253.8698 0007430 282.2294  77.7773 13.91012328  1422
HULIANWANG DIGUI-144    
1 67442U 26007H   26023.88036546  .00000122  00000+0  21238-3 0  9994
2 67442  50.0013 253.5868 0002737 328.4135  31.6599 13.91086201  1438
HULIANWANG DIGUI-145    
1 67443U 26007J   26023.87889082  .00000160  00000+0  24126-3 0  9996
2 67443  50.0029 253.5784 0001491 329.9765  30.1049 13.91383131  1430
CZ-8A R/B               
1 67444U 26007K   26024.00996120  .00000186  00000+0  17330-3 0  9992
2 67444  50.0089 251.5920 0092182 118.6402 242.3815 14.13547434  1469
STARLINK-36542          
1 67445U 26008A   26024.50001156 -.01060339  34034-3 -28909-2 0  9995
2 67445  43.0012 102.2614 0001178 280.2431 267.3295 15.93214952  2693
STARLINK-36539          
1 67446U 26008B   26024.50001156 -.01054082  33688-3 -28647-2 0  9997
2 67446  43.0012 102.2551 0001425 281.1221 268.8852 15.93273826  2696
STARLINK-36440          
1 67447U 26008C   26024.50001156 -.01072943  34823-3 -29048-2 0  9992
2 67447  43.0013 102.2489 0001113 276.1429 276.5034 15.93349779  2695
STARLINK-36423          
1 67448U 26008D   26024.50001156 -.01075531  34997-3 -29024-2 0  9995
2 67448  43.0013 102.2426 0001237 283.8586 271.1527 15.93411225  2697
STARLINK-36519          
1 67449U 26008E   26024.50001156 -.01083589  35502-3 -29136-2 0  9995
2 67449  43.0013 102.2361 0001242 281.3492 276.2352 15.93480606  2692
STARLINK-36525          
1 67450U 26008F   26024.50001156 -.01095784  36264-3 -29340-2 0  9990
2 67450  43.0010 102.2284 0001207 280.3892 280.2029 15.93562155  2695
STARLINK-36511          
1 67451U 26008G   26024.50001156 -.01115318  37486-3 -29730-2 0  9997
2 67451  43.0012 102.2207 0001240 281.4880 282.2192 15.93649560  2698
